BEIDOU 3 (C01)          
1 36287U 10001A   21168.84901905 -.00000275  00000-0  00000-0 0  9997
2 36287   1.8749  46.2214 0005327  79.2991 226.8148  1.00267783 41853
BEIDOU 5 (C06)          
1 36828U 10036A   21168.78550238  .00000005  00000-0  00000-0 0  9998
2 36828  54.1772 179.5885 0114067 235.5263 252.1885  1.00260645 39910
BEIDOU 6 (C04)          
1 37210U 10057A   21169.24673044 -.00000105  00000-0  00000+0 0  9991
2 37210   0.8405  47.3840 0003661 124.0068 344.0966  1.00271408 38988
BEIDOU 7 (C07)          
1 37256U 10068A   21169.22519642 -.00000229  00000-0  00000+0 0  9991
2 37256  50.8620 293.9905 0085779 215.3293 315.7985  1.00254054 38497
BEIDOU 8 (C08)          
1 37384U 11013A   21168.97219508 -.00000212  00000-0  00000-0 0  9996
2 37384  59.7771  57.9017 0051970 205.3656 109.6801  1.00253523 37366
BEIDOU 9 (C09)          
1 37763U 11038A   21169.17384639 -.00000004  00000-0  00000+0 0  9993
2 37763  54.4637 182.0287 0083686 226.7612  15.6429  1.00265001 36340
BEIDOU 10 (C10)         
1 37948U 11073A   21168.85734867 -.00000160  00000-0  00000-0 0  9997
2 37948  50.9634 293.6149 0075440 214.6410 160.4191  1.00293357 35103
BEIDOU 11 (C05)         
1 38091U 12008A   21168.98657065  .00000064  00000-0  00000-0 0  9996
2 38091   1.5526  67.8212 0007882 333.1856 279.2733  1.00273165 34175
BEIDOU 12 (C11)         
1 38250U 12018A   21169.02330818 -.00000063  00000-0  00000+0 0  9993
2 38250  56.7559   5.5931 0020051 248.0183  68.1433  1.86234438 62297
BEIDOU 13 (C12)         
1 38251U 12018B   21168.78402652 -.00000063  00000-0  00000+0 0  9992
2 38251  56.6758   4.9492 0010964 250.9787 309.1552  1.86234265 62295
BEIDOU 15 (C14)         
1 38775U 12050B   21168.94387735  .00000055  00000-0  00000-0 0  9992
2 38775  55.2102 123.9665 0016083 318.6718 186.0364  1.86232299 59678
BEIDOU 16 (C02)         
1 38953U 12059A   21168.98687073 -.00000169  00000-0  00000-0 0  9998
2 38953   1.9704  84.7759 0007142 294.7905 326.1483  1.00274634 31740
BEIDOU 17 (C31)         
1 40549U 15019A   21169.25254361 -.00000180  00000-0  00000+0 0  9994
2 40549  52.4957 316.9798 0038511 186.8888 309.6637  1.00265610 22788
BEIDOU 18 (C57)         
1 40748U 15037A   21169.15466193 -.00000064  00000-0  00000+0 0  9993
2 40748  55.9398   4.0229 0004803  36.6417 321.8662  1.86233558 40129
BEIDOU 19 (C58)         
1 40749U 15037B   21168.96427196 -.00000064  00000-0  00000+0 0  9992
2 40749  55.9411   4.0179 0004332 350.5129  16.4550  1.86232243 40128
BEIDOU 20 (C18)         
1 40938U 15053A   21168.99319035 -.00000154  00000-0  00000+0 0  9995
2 40938  52.0627 280.0575 0047153 191.8519 248.1130  1.00283017 21047
BEIDOU IGSO-6 (C13)     
1 41434U 16021A   21168.97249601 -.00000176  00000-0  00000-0 0  9997
2 41434  57.5622  56.6364 0038045 214.2476  82.1627  1.00269289 19172
BEIDOU-2 G7 (C03)       
1 41586U 16037A   21168.90867647 -.00000347  00000-0  00000-0 0  9991
2 41586   1.7002  67.1137 0009487  18.6281 258.2961  1.00267946 18484
BEIDOU-3 M1 (C19)       
1 43001U 17069A   21168.89877878  .00000055  00000-0  00000-0 0  9991
2 43001  55.3635 123.9204 0012155 292.2845 338.2395  1.86231805 24603
BEIDOU-3 M2 (C20)       
1 43002U 17069B   21168.42921273  .00000057  00000-0  00000+0 0  9991
2 43002  55.3635 123.9708 0010801 309.8306  49.3517  1.86231403 24583
BEIDOU-3 M3 (C27)       
1 43107U 18003A   21168.65177226 -.00000066  00000-0  00000-0 0  9994
2 43107  55.3787   5.1198 0005740  53.3755 260.9081  1.86232738 23359
BEIDOU-3 M4 (C28)       
1 43108U 18003B   21167.29778909 -.00000068  00000-0  00000+0 0  9990
2 43108  55.3756   5.1556 0001861 238.8735 292.8030  1.86232726 23335
BEIDOU-3 M5 (C21)       
1 43207U 18018A   21168.56278728  .00000057  00000-0  00000+0 0  9998
2 43207  55.3232 124.0582 0008078 325.6545  34.2656  1.86231688 22747
BEIDOU-3 M6 (C22)       
1 43208U 18018B   21168.09250977  .00000057  00000-0  00000-0 0  9994
2 43208  55.3228 124.0789 0010206 302.0673  57.8063  1.86231771 22734
BEIDOU-3 M7 (C29)       
1 43245U 18029A   21168.84000231 -.00000065  00000-0  00000+0 0  9995
2 43245  55.3103   2.9065 0001330  66.5288 284.1445  1.86232784 21890
BEIDOU-3 M8 (C30)       
1 43246U 18029B   21168.77350941 -.00000065  00000-0  10000-3 0  9999
2 43246  55.3103   2.9397 0004280   6.6953 345.5781  1.86233081 21885
BEIDOU IGSO-7 (C16)     
1 43539U 18057A   21169.10324132 -.00000055  00000-0  00000+0 0  9990
2 43539  55.0570 178.9481 0038944 223.3839  14.9583  1.00268796 10857
BEIDOU-3 M9 (C23)       
1 43581U 18062A   21168.89478414  .00000017  00000-0  00000-0 0  9999
2 43581  54.4011 244.5830 0004175 262.3862  21.2791  1.86231866 19632
BEIDOU-3 M10 (C24)      
1 43582U 18062B   21167.37395409  .00000017  00000-0  00000-0 0  9994
2 43582  54.4010 244.6234 0004007 347.1784  88.1719  1.86232018 19610
BEIDOU-3 M11 (C25)      
1 43602U 18067A   21168.28724454  .00000019  00000-0  00000-0 0  9991
2 43602  54.4772 243.1783 0006407 357.0453  12.8576  1.86231737 19128
BEIDOU-3 M12 (C26)      
1 43603U 18067B   21166.96797781  .00000020  00000-0  00000-0 0  9990
2 43603  54.4745 243.1877 0003781 342.4266 133.4281  1.86231638 19117
BEIDOU-3 M13 (C32)      
1 43622U 18072A   21168.64076997  .00000056  00000-0  00000-0 0  9992
2 43622  55.2882 123.6229 0008669 289.9799 257.5088  1.86231821 18653
BEIDOU-3 M14 (C33)      
1 43623U 18072B   21168.22850584  .00000056  00000-0  00000-0 0  9999
2 43623  55.2876 123.6286 0006886 309.3961  51.9239  1.86231842 18654
BEIDOU-3 M15 (C34)      
1 43647U 18078A   21169.04308554 -.00000066  00000-0  10000-3 0  9993
2 43647  55.2080   3.0897 0006984   6.5196  76.1765  1.86232953 18175
BEIDOU-3 M16 (C35)      
1 43648U 18078B   21168.19829523 -.00000066  00000-0  10000-3 0  9993
2 43648  55.2002   3.1238 0005162  22.7235 122.0402  1.86232398 18173
BEIDOU-3 G1 (C59)       
1 43683U 18085A   21169.01791182 -.00000269  00000-0  00000+0 0  9991
2 43683   1.0544 227.1944 0002687   3.8368 181.9391  1.00272957  9767
BEIDOU-3 M17 (C36)      
1 43706U 18093A   21167.59918228  .00000017  00000-0  00000-0 0  9990
2 43706  54.4813 244.4861 0010542 266.2067  93.7457  1.86231821 17529
BEIDOU-3 M18 (C37)      
1 43707U 18093B   21169.15958248  .00000018  00000-0  00000+0 0  9991
2 43707  54.4811 244.4224 0008290 290.0451 126.9405  1.86232148 17547
BEIDOU-3 IGSO-1 (C38)   
1 44204U 19023A   21167.24606887 -.00000221  00000-0  00000-0 0  9993
2 44204  56.0158  56.9296 0018165 193.0763 215.0303  1.00296051  8048
BEIDOU-2 G8             
1 44231U 19027A   21168.80343282 -.00000240  00000-0  00000-0 0  9998
2 44231   0.2688 348.0239 0005758 201.9960 150.0652  1.00269742  7761
BEIDOU-3 IGSO-2 (C39)   
1 44337U 19035A   21168.43750014 -.00000048  00000-0  00000-0 0  9994
2 44337  55.0914 174.9935 0020269 193.6469 162.0988  1.00281556  7382
BEIDOU-3 M23 (C45)      
1 44542U 19061A   21168.87142714  .00000017  00000-0  10000-3 0  9990
2 44542  54.7059 244.5116 0007679 322.8541 213.9655  1.86231251 11796
BEIDOU-3 M24 (C46)      
1 44543U 19061B   21168.91653358  .00000017  00000-0  10000-3 0  9997
2 44543  54.7044 244.4797 0005179 308.4293 169.4896  1.86231690 11803
BEIDOU-3 IGSO-3         
1 44709U 19073A   21168.79601777 -.00000182  00000-0  00000-0 0  9998
2 44709  57.8437 300.1543 0019527 197.9204 161.7854  1.00276181  6141
BEIDOU-3 M21            
1 44793U 19078A   21168.18133696 -.00000067  00000-0  10000-3 0  9995
2 44793  55.0555   3.1835 0006820  13.7055 165.6655  1.86232468 10646
BEIDOU-3 M22            
1 44794U 19078B   21168.85188191 -.00000066  00000-0  00000-0 0  9995
2 44794  55.0291   3.1603 0004776  13.8403 166.0866  1.86232914 10659
BEIDOU-3 M19            
1 44864U 19090A   21168.56224760  .00000056  00000-0  00000-0 0  9996
2 44864  55.2236 123.8566 0017878 270.1698 270.1643  1.86231891 10234
BEIDOU-3 M20            
1 44865U 19090B   21168.69721852  .00000056  00000-0  00000-0 0  9995
2 44865  55.2242 123.8826 0016805 283.7701  76.9755  1.86231882 10220
BEIDOU-3 G2             
1 45344U 20017A   21168.92890975 -.00000136  00000-0  00000-0 0  9998
2 45344   2.4289 336.6021 0003919 122.1550 222.1364  1.00271968  4969
BEIDOU-3 G3             
1 45807U 20040A   21169.08382405 -.00000346  00000-0  00000+0 0  9992
2 45807   2.2811 298.5978 0004331 354.3511 114.3589  1.00271284  3785
